[{"OBJECT_NAME":"STARLINK-34877","OBJECT_ID":"2025-210J","EPOCH":"2026-03-09T21:17:44.028096","MEAN_MOTION":15.30218042,"ECCENTRICITY":6.637e-5,"INCLINATION":53.158,"RA_OF_ASC_NODE":306.0005,"ARG_OF_PERICENTER":109.961,"MEAN_ANOMALY":250.1462,"EPHEMERIS_TYPE":0,"CLASSIFICATION_TYPE":"U","NORAD_CAT_ID":65630,"ELEMENT_SET_NO":999,"REV_AT_EPOCH":2776,"BSTAR":0.0011172337,"MEAN_MOTION_DOT":0.00032895,"MEAN_MOTION_DDOT":0},{"OBJECT_NAME":"SPACEMOBILE-005 DEB","OBJECT_ID":"2024-163K","EPOCH":"2026-03-09T07:33:15.902496","MEAN_MOTION":15.31481997,"ECCENTRICITY":0.00072885,"INCLINATION":52.9762,"RA_OF_ASC_NODE":31.7924,"ARG_OF_PERICENTER":175.8731,"MEAN_ANOMALY":184.2329,"EPHEMERIS_TYPE":0,"CLASSIFICATION_TYPE":"U","NORAD_CAT_ID":62373,"ELEMENT_SET_NO":999,"REV_AT_EPOCH":8280,"BSTAR":0.00063853778,"MEAN_MOTION_DOT":0.00019381,"MEAN_MOTION_DDOT":0}]
